QIANFAN-57              
1 62787U 25016C   25214.84160175  .00000135  00000+0  19044-3 0  9999
2 62787  88.9854 116.7979 0002244  91.9661 268.1747 13.50956618 29390
QIANFAN-58              
1 62788U 25016D   25214.51657739  .00000120  00000+0  16683-3 0  9991
2 62788  88.9823 116.7039 0014948  13.4559 346.6988 13.50955667 29395
QIANFAN-59              
1 62789U 25016E   25214.52897378  .00000125  00000+0  17524-3 0  9998
2 62789  88.9847 116.7418 0015945  15.9646 344.2004 13.50960009 29394
QIANFAN-60              
1 62790U 25016F   25214.52053993  .00000051  00000+0  59835-4 0  9997
2 62790  88.9827 116.7472 0016334  13.7259 346.4333 13.50957036 29376
QIANFAN-61              
1 62791U 25016G   25214.53310065  .00000123  00000+0  17164-3 0  9993
2 62791  88.9896 116.8138 0015730  12.7252 347.4293 13.50957840 29395
QIANFAN-62              
1 62792U 25016H   25214.53703823  .00000131  00000+0  18467-3 0  9998
2 62792  88.9842 116.7534 0017142  12.4056 347.7514 13.50956841 29382
QIANFAN-63              
1 62793U 25016J   25214.54939534  .00000131  00000+0  18475-3 0  9999
2 62793  88.9848 116.6919 0017086  16.6877 343.4833 13.50954003 29429
QIANFAN-64              
1 62794U 25016K   25214.54112756  .00000060  00000+0  73584-4 0  9993
2 62794  88.9835 116.6906 0014747  11.7839 348.3654 13.50956349 29416
